{"fetched_at":"2026-07-10T18:07:53.733Z","source":"https://celestrak.org/NORAD/elements/gp.php?GROUP=planet&FORMAT=JSON","constellation":"superdove","records":[{"OBJECT_NAME":"FLOCK 4BE-3","OBJECT_ID":"2024-149CX","EPOCH":"2026-07-09T20:39:11.780064","CLASSIFICATION_TYPE":"U","MEAN_MOTION":15.42270331,"ECCENTRICITY":0.0004521,"INCLINATION":97.3692,"RA_OF_ASC_NODE":274.9997,"ARG_OF_PERICENTER":184.4561,"MEAN_ANOMALY":175.6647,"EPHEMERIS_TYPE":0,"NORAD_CAT_ID":60561,"ELEMENT_SET_NO":999,"REV_AT_EPOCH":10583,"BSTAR":0.00031898097,"MEAN_MOTION_DOT":0.00013644,"MEAN_MOTION_DDOT":0},{"OBJECT_NAME":"FLOCK 4BE-19","OBJECT_ID":"2024-149CZ","EPOCH":"2026-07-08T18:15:01.798272","CLASSIFICATION_TYPE":"U","MEAN_MOTION":15.45427253,"ECCENTRICITY":0.00053632,"INCLINATION":97.374,"RA_OF_ASC_NODE":275.5359,"ARG_OF_PERICENTER":194.5146,"MEAN_ANOMALY":165.595,"EPHEMERIS_TYPE":0,"NORAD_CAT_ID":60563,"ELEMENT_SET_NO":999,"REV_AT_EPOCH":10575,"BSTAR":0.00037934203,"MEAN_MOTION_DOT":0.00018083,"MEAN_MOTION_DDOT":0},{"OBJECT_NAME":"FLOCK 4G-8","OBJECT_ID":"2025-009E","EPOCH":"2026-07-10T04:08:29.338656","CLASSIFICATION_TYPE":"U","MEAN_MOTION":15.30180956,"ECCENTRICITY":0.00034917,"INCLINATION":97.4005,"RA_OF_ASC_NODE":273.0862,"ARG_OF_PERICENTER":211.1944,"MEAN_ANOMALY":148.909,"EPHEMERIS_TYPE":0,"NORAD_CAT_ID":62613,"ELEMENT_SET_NO":999,"REV_AT_EPOCH":8243,"BSTAR":0.00025678398,"MEAN_MOTION_DOT":0.00007424,"MEAN_MOTION_DDOT":0},{"OBJECT_NAME":"FLOCK 4G-13","OBJECT_ID":"2025-009N","EPOCH":"2026-07-10T04:29:47.098752","CLASSIFICATION_TYPE":"U","MEAN_MOTION":15.48308736,"ECCENTRICITY":0.00061858,"INCLINATION":97.3942,"RA_OF_ASC_NODE":274.9218,"ARG_OF_PERICENTER":209.4465,"MEAN_ANOMALY":150.6437,"EPHEMERIS_TYPE":0,"NORAD_CAT_ID":62621,"ELEMENT_SET_NO":999,"REV_AT_EPOCH":8255,"BSTAR":0.001187574,"MEAN_MOTION_DOT":0.00063093,"MEAN_MOTION_DDOT":0},{"OBJECT_NAME":"FLOCK 4G-9","OBJECT_ID":"2025-009P","EPOCH":"2026-07-09T11:16:00.996672","CLASSIFICATION_TYPE":"U","MEAN_MOTION":15.28444844,"ECCENTRICITY":0.0003541,"INCLINATION":97.3956,"RA_OF_ASC_NODE":271.2589,"ARG_OF_PERICENTER":228.8831,"MEAN_ANOMALY":131.2103,"EPHEMERIS_TYPE":0,"NORAD_CAT_ID":62622,"ELEMENT_SET_NO":999,"REV_AT_EPOCH":8226,"BSTAR":0.00023802029,"MEAN_MOTION_DOT":0.00006516,"MEAN_MOTION_DDOT":0},{"OBJECT_NAME":"FLOCK 4G-7","OBJECT_ID":"2025-009R","EPOCH":"2026-07-09T04:10:51.636000","CLASSIFICATION_TYPE":"U","MEAN_MOTION":15.29754282,"ECCENTRICITY":0.00019048,"INCLINATION":97.394,"RA_OF_ASC_NODE":271.3713,"ARG_OF_PERICENTER":203.3931,"MEAN_ANOMALY":156.7223,"EPHEMERIS_TYPE":0,"NORAD_CAT_ID":62624,"ELEMENT_SET_NO":999,"REV_AT_EPOCH":8226,"BSTAR":0.00027583672,"MEAN_MOTION_DOT":0.00007875,"MEAN_MOTION_DDOT":0},{"OBJECT_NAME":"FLOCK 4G-12","OBJECT_ID":"2025-009S","EPOCH":"2026-07-10T00:28:08.713056","CLASSIFICATION_TYPE":"U","MEAN_MOTION":15.29702615,"ECCENTRICITY":0.00036545,"INCLINATION":97.402,"RA_OF_ASC_NODE":272.7573,"ARG_OF_PERICENTER":208.0491,"MEAN_ANOMALY":152.0553,"EPHEMERIS_TYPE":0,"NORAD_CAT_ID":62625,"ELEMENT_SET_NO":999,"REV_AT_EPOCH":8239,"BSTAR":0.00027893799,"MEAN_MOTION_DOT":0.00007953,"MEAN_MOTION_DDOT":0},{"OBJECT_NAME":"FLOCK 4G-11","OBJECT_ID":"2025-009W","EPOCH":"2026-07-09T00:34:01.317504","CLASSIFICATION_TYPE":"U","MEAN_MOTION":15.29794351,"ECCENTRICITY":0.00020016,"INCLINATION":97.3919,"RA_OF_ASC_NODE":271.331,"ARG_OF_PERICENTER":206.9582,"MEAN_ANOMALY":153.1555,"EPHEMERIS_TYPE":0,"NORAD_CAT_ID":62629,"ELEMENT_SET_NO":999,"REV_AT_EPOCH":8225,"BSTAR":0.0002659119,"MEAN_MOTION_DOT":0.00007598,"MEAN_MOTION_DDOT":0},{"OBJECT_NAME":"FLOCK 4G-26","OBJECT_ID":"2025-009AA","EPOCH":"2026-07-10T05:09:52.396992","CLASSIFICATION_TYPE":"U","MEAN_MOTION":15.2999949,"ECCENTRICITY":0.00031435,"INCLINATION":97.4015,"RA_OF_ASC_NODE":273.1109,"ARG_OF_PERICENTER":194.4402,"MEAN_ANOMALY":165.6749,"EPHEMERIS_TYPE":0,"NORAD_CAT_ID":62633,"ELEMENT_SET_NO":999,"REV_AT_EPOCH":8243,"BSTAR":0.00029375975,"MEAN_MOTION_DOT":0.00008457,"MEAN_MOTION_DDOT":0},{"OBJECT_NAME":"FLOCK 4G-28","OBJECT_ID":"2025-009AB","EPOCH":"2026-07-09T00:35:21.407712","CLASSIFICATION_TYPE":"U","MEAN_MOTION":15.35208382,"ECCENTRICITY":0.00015736,"INCLINATION":97.402,"RA_OF_ASC_NODE":274.6606,"ARG_OF_PERICENTER":175.0785,"MEAN_ANOMALY":185.0474,"EPHEMERIS_TYPE":0,"NORAD_CAT_ID":62634,"ELEMENT_SET_NO":999,"REV_AT_EPOCH":8243,"BSTAR":0.00017296429,"MEAN_MOTION_DOT":0.0000583,"MEAN_MOTION_DDOT":0},{"OBJECT_NAME":"FLOCK 4G-20","OBJECT_ID":"2025-009AD","EPOCH":"2026-07-10T04:15:00.703008","CLASSIFICATION_TYPE":"U","MEAN_MOTION":15.59472967,"ECCENTRICITY":0.00060137,"INCLINATION":97.3851,"RA_OF_ASC_NODE":276.399,"ARG_OF_PERICENTER":217.471,"MEAN_ANOMALY":142.6128,"EPHEMERIS_TYPE":0,"NORAD_CAT_ID":62636,"ELEMENT_SET_NO":999,"REV_AT_EPOCH":8269,"BSTAR":0.0014357621,"MEAN_MOTION_DOT":0.00115074,"MEAN_MOTION_DDOT":0},{"OBJECT_NAME":"FLOCK 4G-24","OBJECT_ID":"2025-009AE","EPOCH":"2026-07-09T04:20:56.746176","CLASSIFICATION_TYPE":"U","MEAN_MOTION":15.30289198,"ECCENTRICITY":0.00031005,"INCLINATION":97.402,"RA_OF_ASC_NODE":272.3827,"ARG_OF_PERICENTER":183.4224,"MEAN_ANOMALY":176.6996,"EPHEMERIS_TYPE":0,"NORAD_CAT_ID":62637,"ELEMENT_SET_NO":999,"REV_AT_EPOCH":8229,"BSTAR":0.00025254953,"MEAN_MOTION_DOT":0.00007324,"MEAN_MOTION_DDOT":0},{"OBJECT_NAME":"FLOCK 4G-3","OBJECT_ID":"2025-009AG","EPOCH":"2026-07-08T18:43:10.764480","CLASSIFICATION_TYPE":"U","MEAN_MOTION":15.29783248,"ECCENTRICITY":0.00025621,"INCLINATION":97.4022,"RA_OF_ASC_NODE":271.6959,"ARG_OF_PERICENTER":189.3147,"MEAN_ANOMALY":170.8047,"EPHEMERIS_TYPE":0,"NORAD_CAT_ID":62639,"ELEMENT_SET_NO":999,"REV_AT_EPOCH":8220,"BSTAR":0.0002692889,"MEAN_MOTION_DOT":0.00007693,"MEAN_MOTION_DDOT":0},{"OBJECT_NAME":"FLOCK 4G-27","OBJECT_ID":"2025-009AJ","EPOCH":"2026-07-10T04:09:04.696128","CLASSIFICATION_TYPE":"U","MEAN_MOTION":15.29749184,"ECCENTRICITY":0.00020571,"INCLINATION":97.393,"RA_OF_ASC_NODE":272.4378,"ARG_OF_PERICENTER":183.2438,"MEAN_ANOMALY":176.879,"EPHEMERIS_TYPE":0,"NORAD_CAT_ID":62641,"ELEMENT_SET_NO":999,"REV_AT_EPOCH":8241,"BSTAR":0.00028484645,"MEAN_MOTION_DOT":0.00008134,"MEAN_MOTION_DDOT":0},{"OBJECT_NAME":"FLOCK 4G-29","OBJECT_ID":"2025-009AK","EPOCH":"2026-07-09T04:15:23.065920","CLASSIFICATION_TYPE":"U","MEAN_MOTION":15.29792433,"ECCENTRICITY":0.00028597,"INCLINATION":97.4018,"RA_OF_ASC_NODE":272.0516,"ARG_OF_PERICENTER":184.5975,"MEAN_ANOMALY":175.524,"EPHEMERIS_TYPE":0,"NORAD_CAT_ID":62642,"ELEMENT_SET_NO":999,"REV_AT_EPOCH":8226,"BSTAR":0.00023142078,"MEAN_MOTION_DOT":0.00006602,"MEAN_MOTION_DDOT":0},{"OBJECT_NAME":"FLOCK 4G-22","OBJECT_ID":"2025-009AN","EPOCH":"2026-07-10T04:14:23.103456","CLASSIFICATION_TYPE":"U","MEAN_MOTION":15.29708013,"ECCENTRICITY":0.00024864,"INCLINATION":97.4006,"RA_OF_ASC_NODE":273.0825,"ARG_OF_PERICENTER":175.0554,"MEAN_ANOMALY":185.0711,"EPHEMERIS_TYPE":0,"NORAD_CAT_ID":62645,"ELEMENT_SET_NO":999,"REV_AT_EPOCH":8243,"BSTAR":0.0002583498,"MEAN_MOTION_DOT":0.0000736,"MEAN_MOTION_DDOT":0}]}
