FLOCK 4BE-3             
1 60561U 24149CX  26190.86055301  .00013644  00000+0  31898-3 0  9993
2 60561  97.3692 274.9997 0004521 184.4561 175.6647 15.42270331105835
FLOCK 4BE-19            
1 60563U 24149CZ  26189.76043748  .00018083  00000+0  37934-3 0  9993
2 60563  97.3740 275.5359 0005363 194.5146 165.5950 15.45427253105752
FLOCK 4G-8              
1 62613U 25009E   26191.17256179  .00007424  00000+0  25678-3 0  9998
2 62613  97.4005 273.0862 0003491 211.1944 148.9090 15.30180956 82438
FLOCK 4G-13             
1 62621U 25009N   26191.18735068  .00063093  00000+0  11876-2 0  9995
2 62621  97.3942 274.9218 0006185 209.4465 150.6437 15.48308736 82557
FLOCK 4G-9              
1 62622U 25009P   26190.46945598  .00006516  00000+0  23802-3 0  9997
2 62622  97.3956 271.2589 0003541 228.8831 131.2103 15.28444844 82261
FLOCK 4G-7              
1 62624U 25009R   26190.17420875  .00007875  00000+0  27584-3 0  9993
2 62624  97.3940 271.3713 0001904 203.3931 156.7223 15.29754282 82262
FLOCK 4G-12             
1 62625U 25009S   26191.01954529  .00007953  00000+0  27894-3 0  9997
2 62625  97.4020 272.7573 0003654 208.0491 152.0553 15.29702615 82391
FLOCK 4G-11             
1 62629U 25009W   26190.02362636  .00007598  00000+0  26591-3 0  9991
2 62629  97.3919 271.3310 0002001 206.9582 153.1555 15.29794351 82255
FLOCK 4G-26             
1 62633U 25009AA  26191.21518978  .00008457  00000+0  29376-3 0  9999
2 62633  97.4015 273.1109 0003143 194.4402 165.6749 15.29999490 82438
FLOCK 4G-28             
1 62634U 25009AB  26190.02455333  .00005830  00000+0  17296-3 0  9993
2 62634  97.4020 274.6606 0001573 175.0785 185.0474 15.35208382 82438
FLOCK 4G-20             
1 62636U 25009AD  26191.17709147  .00115074  00000+0  14358-2 0  9994
2 62636  97.3851 276.3990 0006013 217.4710 142.6128 15.59472967 82690
FLOCK 4G-24             
1 62637U 25009AE  26190.18121234  .00007324  00000+0  25255-3 0  9997
2 62637  97.4020 272.3827 0003100 183.4224 176.6996 15.30289198 82298
FLOCK 4G-3              
1 62639U 25009AG  26189.77998570  .00007693  00000+0  26929-3 0  9995
2 62639  97.4022 271.6959 0002562 189.3147 170.8047 15.29783248 82207
FLOCK 4G-27             
1 62641U 25009AJ  26191.17297102  .00008134  00000+0  28485-3 0  9998
2 62641  97.3930 272.4378 0002057 183.2438 176.8790 15.29749184 82411
FLOCK 4G-29             
1 62642U 25009AK  26190.17735030  .00006602  00000+0  23142-3 0  9998
2 62642  97.4018 272.0516 0002859 184.5975 175.5240 15.29792433 82264
FLOCK 4G-22             
1 62645U 25009AN  26191.17665629  .00007360  00000+0  25835-3 0  9991
2 62645  97.4006 273.0825 0002486 175.0554 185.0711 15.29708013 82431
